1 19059U 63014EG  20207.47838975 -.00000018 +00000-0 -98517-2 0  9993
2 19059 087.3373 033.3992 0081190 074.1226 286.8560 08.66492214027306
1 19059U 63014EG  20207.94017088 -.00000013 +00000-0 -73935-2 0  9991
2 19059 087.3373 033.3549 0081188 073.6723 287.3042 08.66492221027340
1 19059U 63014EG  20209.90274073 +.00000012 +00000-0 +41184-2 0  9996
2 19059 087.3375 033.1670 0081162 071.7139 289.2527 08.66492248027514
1 19059U 63014EG  20209.90274073  .00000012  00000-0  41184-2 0  9996
2 19059  87.3375  33.1670 0081162  71.7139 289.2527  8.66492248 27570
1 19059U 63014EG  20210.94174847 +.00000016 +00000-0 +61471-2 0  9995
2 19059 087.3379 033.0677 0081131 070.6509 290.3097 08.66492185027604
1 19059U 63014EG  20212.44253709  .00000029  00000-0  11878-1 0  9996
2 19059  87.3382  32.9241 0081137  69.1125 291.8394  8.66492246 27790
1 19059U 63014EG  20212.90431780 +.00000032 +00000-0 +13494-1 0  9994
2 19059 087.3383 032.8799 0081124 068.6587 292.2903 08.66492305027775
1 19059U 63014EG  20214.86688642 +.00000020 +00000-0 +76496-2 0  9991
2 19059 087.3385 032.6921 0081106 066.6832 294.2533 08.66492350027943
1 19059U 63014EG  20214.86688642 +.00000020 +00000-0 +76496-2 0  9991
2 19059 087.3385 032.6921 0081106 066.6832 294.2533 08.66492350028001
1 19059U 63014EG  20215.44411246 +.00000011 +00000-0 +34980-2 0  9992
2 19059 087.3387 032.6369 0081115 066.1213 294.8117 08.66492324027999
1 19059U 63014EG  20215.90589317 +.00000007 +00000-0 +16914-2 0  9990
2 19059 087.3387 032.5927 0081108 065.6541 295.2756 08.66492339028034
1 19059U 63014EG  20217.86846096 -.00000011 +00000-0 -64703-2 0  9993
2 19059 087.3390 032.4049 0081071 063.6847 297.2308 08.66492341028205
1 19059U 63014EG  20217.86846096 -.00000011  00000-0 -64703-2 0  9993
2 19059  87.3390  32.4049 0081071  63.6847 297.2308  8.66492341 28261
1 19059U 63014EG  20218.44568659 -.00000013 +00000-0 -72575-2 0  9992
2 19059 087.3390 032.3496 0081054 063.1075 297.8036 08.66492357028255
1 19059U 63014EG  20220.40825391 -.00000010  00000-0 -60186-2 0  9992
2 19059  87.3392  32.1618 0081017  61.1426 299.7531  8.66492393 28484
1 19059U 63014EG  20221.90904107 -.00000002 +00000-0 -22011-2 0  9997
2 19059 087.3395 032.0183 0081004 059.6193 301.2640 08.66492351028554
1 19059U 63014EG  20223.40982890  .00000005  00000-0  11086-2 0  9990
2 19059  87.3397  31.8747 0081074  58.0993 302.7718  8.66492247 28744
1 19059U 63014EG  20223.87160948 +.00000013 +00000-0 +45614-2 0  9996
2 19059 087.3397 031.8306 0081070 057.6336 303.2334 08.66492267028727
1 19059U 63014EG  20224.44883517 +.00000018 +00000-0 +67110-2 0  9994
2 19059 087.3393 031.7754 0081061 057.0420 303.8198 08.66492284028775
1 19059U 63014EG  20225.83417646 +.00000032 +00000-0 +13303-1 0  9994
2 19059 087.3398 031.6430 0081048 055.6503 305.1988 08.66492380028950
1 19059U 63014EG  20226.87318227 +.00000032 +00000-0 +13256-1 0  9991
2 19059 087.3401 031.5437 0081021 054.6107 306.2284 08.66492400028988
1 19059U 63014EG  20228.83574833 +.00000019 +00000-0 +74498-2 0  9997
2 19059 087.3405 031.3559 0080985 052.6369 308.1829 08.66492450029152
1 19059U 63014EG  20228.83574833  .00000019  00000-0  74498-2 0  9997
2 19059  87.3405  31.3559 0080985  52.6369 308.1829  8.66492450 29219
1 19059U 63014EG  20229.41297331 +.00000016 +00000-0 +61557-2 0  9996
2 19059 087.3406 031.3006 0080954 052.0607 308.7531 08.66492484029204
1 19059U 63014EG  20229.87475339 +.00000012 +00000-0 +39895-2 0  9998
2 19059 087.3407 031.2565 0080941 051.5954 309.2136 08.66492496029243
1 19059U 63014EG  20231.37553913 -.00000007 +00000-0 -48357-2 0  9990
2 19059 087.3410 031.1130 0080953 050.0795 310.7141 08.66492444029431
1 19059U 63014EG  20233.79988496 -.00000015 +00000-0 -83832-2 0  9992
2 19059 087.3415 030.8813 0080956 047.6427 313.1248 08.66492410029581
1 19059U 63014EG  20233.79988496 -.00000015  00000-0 -83832-2 0  9992
2 19059  87.3415  30.8813 0080956  47.6427 313.1248  8.66492410 29648
1 19059U 63014EG  20234.37711053 -.00000014 +00000-0 -78727-2 0  9996
2 19059 087.3417 030.8262 0080998 047.0647 313.6968 08.66492367029636
1 19059U 63014EG  20237.37868043  .00000015  00000-0  57381-2 0  9993
2 19059  87.3422  30.5395 0080885  44.0019 316.7239  8.66492433 29955
1 19059U 63014EG  20239.34124454 +.00000030 +00000-0 +12341-1 0  9996
2 19059 087.3422 030.3517 0080762 041.9973 318.7039 08.66492511030069
1 19059U 63014EG  20239.80302444 +.00000031 +00000-0 +12997-1 0  9992
2 19059 087.3424 030.3077 0080759 041.5247 319.1708 08.66492537030109
1 19059U 63014EG  20239.80302444  .00000031  00000-0  12997-1 0  9992
2 19059  87.3424  30.3077 0080759  41.5247 319.1708  8.66492537 30165
1 19059U 63014EG  20240.84202893 +.00000029 +00000-0 +11889-1 0  9991
2 19059 087.3426 030.2085 0080729 040.4606 320.2217 08.66492580030198
1 19059U 63014EG  20242.34281360  .00000015  00000-0  57351-2 0  9994
2 19059  87.3430  30.0653 0080762  38.9457 321.7180  8.66492596 30388
1 19059U 63014EG  20243.38181743 +.00000006 +00000-0 +13193-2 0  9999
2 19059 087.3433 029.9661 0080693 037.8693 322.7804 08.66492640030418
1 19059U 63014EG  20245.34438102 -.00000014  00000-0 -79932-2 0  9995
2 19059  87.3439  29.7789 0080659  35.8652 324.7583  8.66492595 30648
1 19059U 63014EG  20247.76872351 -.00000010 +00000-0 -60359-2 0  9990
2 19059 087.3447 029.5477 0080544 033.3528 327.2367 08.66492621030791
1 19059U 63014EG  20247.76872351 -.00000010  00000-0 -60359-2 0  9990
2 19059  87.3447  29.5477 0080544  33.3528 327.2367  8.66492621 30858
1 19059U 63014EG  20248.34594937 -.00000008 +00000-0 -50165-2 0  9997
2 19059 087.3448 029.4927 0080680 032.8236 327.7596 08.66492545030842
1 19059U 63014EG  20251.34751673  .00000024  00000-0  96523-2 0  9997
2 19059  87.3455  29.2064 0080619  29.7562 330.7845  8.66492646 31168
1 19059U 63014EG  20253.31007983 +.00000030 +00000-0 +12410-1 0  9993
2 19059 087.3462 029.0197 0080577 027.7285 332.7834 08.66492675031278
1 19059U 63014EG  20256.31164562  .00000013  00000-0  45651-2 0  9998
2 19059  87.3470  28.7336 0080467  24.5925 335.8737  8.66492718 31591
1 19059U 63014EG  20259.31321157 -.00000028 +00000-0 -14214-1 0  9994
2 19059 087.3467 028.4469 0080355 021.4963 338.9238 08.66492473031795
1 19059U 63014EG  20259.31321157 -.00000028  00000-0 -14214-1 0  9994
2 19059  87.3467  28.4469 0080355  21.4963 338.9238  8.66492473 31852
1 19059U 63014EG  20261.27577461 -.00000008 +00000-0 -48797-2 0  9995
2 19059 087.3469 028.2601 0080323 019.4526 340.9367 08.66492419031965
1 19059U 63014EG  20262.31477857 -.00000022  00000-0 -11459-1 0  9999
2 19059  87.3468  28.1604 0080239  18.2990 342.0726  8.66492201 32113
1 19059U 63014EG  20264.27734237 -.00000042 +00000-0 -20669-1 0  9999
2 19059 087.3482 027.9743 0080195 016.2852 344.0555 08.66491847032225
1 19059U 63014EG  20264.73912205 -.00000041  00000-0 -20320-1 0  9996
2 19059  87.3481  27.9302 0080184  15.8005 344.5328  8.66491815 32327
1 19059U 63014EG  20265.31634698 -.00000055 +00000-0 -26814-1 0  9997
2 19059 087.3491 027.8756 0080147 015.1915 345.1323 08.66491589032311
1 19059U 63014EG  20270.28048292 -.00000068  00000-0 -32833-1 0  9990
2 19059  87.3491  27.4034 0079991   9.9259 350.3157  8.66490596 32807
1 19059U 63014EG  20270.74226351 -.00000081 +00000-0 -38805-1 0  9995
2 19059 087.3489 027.3590 0079951 009.4793 350.7552 08.66490340032781
1 19059U 63014EG  20273.28205753 -.00000095  00000-0 -45271-1 0  9990
2 19059  87.3498  27.1176 0079906   6.7614 353.4302  8.66489644 33061
1 19059U 63014EG  20275.24462718 -.00000116 +00000-0 -55101-1 0  9991
2 19059 087.3506 026.9313 0079890 004.6177 355.5401 08.66488950033178
1 19059U 63014EG  20276.28363540 -.00000126  00000-0 -59740-1 0  9993
2 19059  87.3503  26.8319 0079867   3.5138 356.6265  8.66488529 33328
1 19059U 63014EG  20277.20719823 -.00000125 +00000-0 -58866-1 0  9992
2 19059 087.3504 026.7440 0079858 002.5197 357.6048 08.66488292033346
1 19059U 63014EG  20278.24620810 -.00000163 +00000-0 -76555-1 0  9991
2 19059 087.3507 026.6454 0079868 001.3803 358.7261 08.66487513033439
1 19059U 63014EG  20278.70799012 -.00000173  00000-0 -81089-1 0  9992
2 19059  87.3505  26.6012 0079882   0.8248 359.2728  8.66487247 33539
1 19059U 63014EG  20279.28521755 -.00000169 +00000-0 -79498-1 0  9999
2 19059 087.3506 026.5463 0079876 000.1939 359.8937 08.66487081033525
1 19059U 63014EG  20280.20878143 -.00000158 +00000-0 -74439-1 0  9997
2 19059 087.3508 026.4584 0079869 359.1913 000.8803 08.66486897033609
1 19059U 63014EG  20280.67056395 -.00000177 +00000-0 -82953-1 0  9996
2 19059 087.3505 026.4142 0079870 358.6758 001.3876 08.66486529033641
1 19059U 63014EG  20281.24779234 -.00000192  00000-0 -89976-1 0  9993
2 19059  87.3509  26.3594 0079869 358.0501   2.0035  8.66486139 33757
1 19059U 63014EG  20281.24779234 -.00000192 +00000-0 -89976-1 0  9993
2 19059 087.3509 026.3594 0079869 358.0501 002.0035 08.66486139033690
1 19059U 63014EG  20286.67374491 -.00000238  00000-0 -11123+0 0  9999
2 19059  87.3516  25.8437 0079916 352.0376   7.9208  8.66483451 34225
1 19059U 63014EG  20287.25097491 -.00000248 +00000-0 -11598+0 0  9993
2 19059 087.3517 025.7889 0079924 351.3842 008.5639 08.66483081034274
1 19059U 63014EG  20287.71275919 -.00000241 +00000-0 -11279+0 0  9996
2 19059 087.3513 025.7447 0079927 350.9218 009.0190 08.66482948034252
1 19059U 63014EG  20287.71275919 -.00000241 +00000-0 -11279+0 0  9996
2 19059 087.3513 025.7447 0079927 350.9218 009.0190 08.66482948034319
1 19059U 63014EG  20289.21355855 -.00000253 +00000-0 -11802+0 0  9996
2 19059 087.3513 025.6020 0079962 349.2326 010.6817 08.66482114034381
1 19059U 63014EG  20292.21516141 -.00000235  00000-0 -10975+0 0  9997
2 19059  87.3514  25.3165 0080065 345.9290  13.9338  8.66480802 34700
1 19059U 63014EG  20292.21516141 -.00000235 +00000-0 -10975+0 0  9997
2 19059 087.3514 025.3165 0080065 345.9290 013.9338 08.66480802034700
1 19059U 63014EG  20294.17775118 -.00000230 +00000-0 -10754+0 0  9995
2 19059 087.3517 025.1299 0080127 343.7745 016.0550 08.66479804034877
